ORBCOMM-X [-]           
1 21576U 91050C   24053.72178086  .00000453  00000+0  15008-3 0  9997
2 21576  98.4034 122.7571 0003608 180.1537 179.9652 14.42375459712832
ORBCOMM FM01 [-]        
1 23545U 95017A   24053.73663521  .00006583  00000+0  90682-3 0  9997
2 23545  69.9681 181.0444 0007655 310.2647  49.7831 14.78632275541229
ORBCOMM FM02 [-]        
1 23546U 95017B   24053.81139363  .00006269  00000+0  87283-3 0  9993
2 23546  69.9692 200.1430 0009433 308.0812  51.9485 14.78196980540884
ORBCOMM FM08 [-]        
1 25112U 97084A   24053.53955821  .00002076  00000+0  66934-3 0  9996
2 25112  45.0140 148.2557 0007040 327.2345  32.8068 14.42049474371902
ORBCOMM FM10 [-]        
1 25113U 97084B   24053.54214284  .00002046  00000+0  66124-3 0  9997
2 25113  45.0153 150.0422 0005758 294.2209  65.8039 14.41976375547058
ORBCOMM FM11 [+]        
1 25114U 97084C   24053.55450554  .00002128  00000+0  68755-3 0  9994
2 25114  45.0139 149.9912 0006495 296.6574  63.3611 14.41863849372027
ORBCOMM FM12 [-]        
1 25115U 97084D   24053.37394631  .00001938  00000+0  63050-3 0  9999
2 25115  45.0144 150.5233 0005534 293.8755  66.1514 14.41836199371795
ORBCOMM FM09 [-]        
1 25116U 97084E   24053.52202809  .00001972  00000+0  64104-3 0  9991
2 25116  45.0146 150.4814 0006988 284.9559  75.0517 14.41802934372028
